NORAD_CAT_ID,OBJECT_NAME,OBJECT_TYPE,EPOCH,MEAN_MOTION,ECCENTRICITY,INCLINATION,RA_OF_ASC_NODE,ARG_OF_PERICENTER,MEAN_ANOMALY,BSTAR,MEAN_MOTION_DOT,MEAN_MOTION_DDOT,TLE_LINE0,TLE_LINE1,TLE_LINE2,SEMIMAJOR_AXIS,PERIOD,APOGEE,PERIGEE,DECAYED
55402.0,STARLINK-5071,PAYLOAD,2024-05-28 17:07:07,14.98336756,0.0002725,70.0018,263.3396,249.3268,110.7599,0.00019756,2.265e-05,0.0,0 STARLINK-5071,1 55402U 23014M   24149.71327891  .00002265  00000-0  19756-3 0  9990,2 55402  70.0018 263.3396 0002725 249.3268 110.7599 14.98336756 74696,6950.172,96.107,573.931,570.143,0.0
55402.0,STARLINK-5071,PAYLOAD,2024-05-29 12:20:43,14.98336387,0.0002823,70.0019,261.3211,254.8577,105.227,-0.00011111,-1.419e-05,0.0,0 STARLINK-5071,1 55402U 23014M   24150.51439796 -.00001419  00000-0 -11111-3 0  9997,2 55402  70.0019 261.3211 0002823 254.8577 105.2270 14.98336387 73878,6950.173,96.107,574.0,570.076,0.0
55402.0,STARLINK-5071,PAYLOAD,2024-05-29 13:56:52,14.98330563,0.0002776,70.0019,261.153,256.9324,103.1525,6.4709e-05,6.79e-06,0.0,0 STARLINK-5071,1 55402U 23014M   24150.58116126  .00000679  00000-0  64709-4 0  9990,2 55402  70.0019 261.1530 0002776 256.9324 103.1525 14.98330563 74826,6950.191,96.107,573.986,570.127,0.0
55402.0,STARLINK-5071,PAYLOAD,2024-05-29 17:09:08,14.98329368,0.0002843,70.0006,260.8156,259.7934,100.2905,7.5804e-05,8.12e-06,0.0,0 STARLINK-5071,1 55402U 23014M   24150.71468428  .00000812  00000-0  75804-4 0  9997,2 55402  70.0006 260.8156 0002843 259.7934 100.2905 14.98329368 73904,6950.195,96.107,574.036,570.084,0.0
55402.0,STARLINK-5071,PAYLOAD,2024-05-30 04:22:04,14.98338035,0.0002927,70.0004,259.6366,263.2238,96.8588,0.00014392,1.625e-05,0.0,0 STARLINK-5071,1 55402U 23014M   24151.18199695  .00001625  00000-0  14392-3 0  9993,2 55402  70.0004 259.6366 0002927 263.2238  96.8588 14.98338035 73976,6950.168,96.106,574.067,569.999,0.0
55402.0,STARLINK-5071,PAYLOAD,2024-05-30 12:22:44,14.9833815,0.0003005,70.0002,258.7949,265.0242,95.0574,0.00011604,1.292e-05,0.0,0 STARLINK-5071,1 55402U 23014M   24151.51579668  .00001292  00000-0  11604-3 0  9995,2 55402  70.0002 258.7949 0003005 265.0242  95.0574 14.98338150 74968,6950.168,96.106,574.121,569.944,0.0
55402.0,STARLINK-5071,PAYLOAD,2024-05-30 17:11:08,14.98340882,0.0002981,70.0002,258.29,265.1157,94.9662,0.00014345,1.619e-05,0.0,0 STARLINK-5071,1 55402U 23014M   24151.71607353  .00001619  00000-0  14345-3 0  9998,2 55402  70.0002 258.2900 0002981 265.1157  94.9662 14.98340882 74992,6950.159,96.106,574.096,569.952,0.0
55402.0,STARLINK-5071,PAYLOAD,2024-05-31 10:48:37,14.98333566,0.000301,70.0002,256.4386,265.2234,94.8582,0.0001343,1.51e-05,0.0,0 STARLINK-5071,1 55402U 23014M   24152.45043675  .00001510  00000-0  13430-3 0  9995,2 55402  70.0002 256.4386 0003010 265.2234  94.8582 14.98333566 74161,6950.182,96.107,574.139,569.955,0.0
55402.0,STARLINK-5071,PAYLOAD,2024-05-31 14:00:53,14.98334852,0.0003003,70.0002,256.1021,265.1411,94.9405,0.00014388,1.624e-05,0.0,0 STARLINK-5071,1 55402U 23014M   24152.58395567  .00001624  00000-0  14388-3 0  9998,2 55402  70.0002 256.1021 0003003 265.1411  94.9405 14.98334852 75123,6950.178,96.107,574.13,569.956,0.0
55402.0,STARLINK-5071,PAYLOAD,2024-05-31 17:13:09,14.98336471,0.0003111,69.9999,255.7646,268.8903,91.19,0.00012614,1.413e-05,0.0,0 STARLINK-5071,1 55402U 23014M   24152.71747446  .00001413  00000-0  12614-3 0  9996,2 55402  69.9999 255.7646 0003111 268.8903  91.1900 14.98336471 75149,6950.173,96.107,574.2,569.876,0.0
55402.0,STARLINK-5071,PAYLOAD,2024-06-01 10:50:39,14.98310706,0.0003079,70.0002,253.9138,266.9472,93.1335,0.00030963,3.602e-05,0.0,0 STARLINK-5071,1 55402U 23014M   24153.45184636  .00003602  00000-0  30963-3 0  9993,2 55402  70.0002 253.9138 0003079 266.9472  93.1335 14.98310706 74311,6950.253,96.108,574.258,569.978,0.0
55402.0,STARLINK-5071,PAYLOAD,2024-06-01 14:02:55,14.98327434,0.0002954,70.0002,253.5772,267.5558,92.5262,-3.8294e-05,-5.5e-06,0.0,0 STARLINK-5071,1 55402U 23014M   24153.58536246 -.00000550  00000-0 -38294-4 0  9992,2 55402  70.0002 253.5772 0002954 267.5558  92.5262 14.98327434 75278,6950.201,96.107,574.119,570.013,0.0
55402.0,STARLINK-5071,PAYLOAD,2024-06-01 15:39:03,14.9832759,0.000295,70.0002,253.4089,267.5926,92.4895,-3.7684e-05,-5.43e-06,0.0,0 STARLINK-5071,1 55402U 23014M   24153.65212233 -.00000543  00000-0 -37684-4 0  9991,2 55402  70.0002 253.4089 0002950 267.5926  92.4895 14.98327590 74344,6950.2,96.107,574.116,570.015,0.0
55402.0,STARLINK-5071,PAYLOAD,2024-06-02 12:28:48,14.98328742,0.0003043,70.0,251.2207,268.2653,91.8157,1.4908e-05,8.5e-07,0.0,0 STARLINK-5071,1 55402U 23014M   24154.52000101  .00000085  00000-0  14908-4 0  9990,2 55402  70.0000 251.2207 0003043 268.2653  91.8157 14.98328742 75412,6950.197,96.107,574.177,569.947,0.0
55402.0,STARLINK-5071,PAYLOAD,2024-06-02 23:41:44,14.98330411,0.0003014,70.0001,250.0423,268.6322,91.4492,7.0397e-05,7.47e-06,0.0,0 STARLINK-5071,1 55402U 23014M   24154.98731885  .00000747  00000-0  70397-4 0  9999,2 55402  70.0001 250.0423 0003014 268.6322  91.4492 14.98330411 74542,6950.192,96.107,574.151,569.962,0.0
55402.0,STARLINK-5071,PAYLOAD,2024-06-03 12:30:48,14.98333586,0.0003142,69.9998,248.6959,267.7678,92.3121,0.00016148,1.834e-05,0.0,0 STARLINK-5071,1 55402U 23014M   24155.52139555  .00001834  00000-0  16148-3 0  9997,2 55402  69.9998 248.6959 0003142 267.7678  92.3121 14.98333586 75565,6950.182,96.107,574.231,569.863,0.0
55402.0,STARLINK-5071,PAYLOAD,2024-06-03 15:43:04,14.98334291,0.0003144,69.9997,248.3591,267.868,92.2119,0.00016456,1.871e-05,0.0,0 STARLINK-5071,1 55402U 23014M   24155.65491498  .00001871  00000-0  16456-3 0  9991,2 55402  69.9997 248.3591 0003144 267.8680  92.2119 14.98334291 75581,6950.18,96.107,574.23,569.859,0.0
55402.0,STARLINK-5071,PAYLOAD,2024-06-03 23:43:44,14.98335074,0.0003286,69.9991,247.5165,271.3192,88.759,0.00011923,1.33e-05,0.0,0 STARLINK-5071,1 55402U 23014M   24155.98871446  .00001330  00000-0  11923-3 0  9996,2 55402  69.9991 247.5165 0003286 271.3192  88.7590 14.98335074 74692,6950.177,96.107,574.326,569.758,0.0
55402.0,STARLINK-5071,PAYLOAD,2024-06-04 12:32:49,14.98338579,0.0003229,69.9993,246.169,269.4901,90.5888,0.00012217,1.365e-05,0.0,0 STARLINK-5071,1 55402U 23014M   24156.52279115  .00001365  00000-0  12217-3 0  9997,2 55402  69.9993 246.1690 0003229 269.4901  90.5888 14.98338579 75713,6950.166,96.106,574.276,569.787,0.0
55402.0,STARLINK-5071,PAYLOAD,2024-06-04 15:45:05,14.98338384,0.0003016,69.9993,245.8322,263.9781,96.1035,0.00013843,1.559e-05,0.0,0 STARLINK-5071,1 55402U 23014M   24156.65631039  .00001559  00000-0  13843-3 0  9999,2 55402  69.9993 245.8322 0003016 263.9781  96.1035 14.98338384 75732,6950.167,96.106,574.128,569.936,0.0
55402.0,STARLINK-5071,PAYLOAD,2024-06-04 23:45:45,14.98333611,0.0003089,69.9998,244.9911,270.2938,89.7867,2.9056e-05,2.54e-06,0.0,0 STARLINK-5071,1 55402U 23014M   24156.99011504  .00000254  00000-0  29056-4 0  9990,2 55402  69.9998 244.9911 0003089 270.2938  89.7867 14.98333611 74846,6950.182,96.107,574.194,569.9,0.0
55402.0,STARLINK-5071,PAYLOAD,2024-06-05 12:34:50,14.98333843,0.0003011,69.9998,243.6447,268.6714,91.41,-4.075e-06,-1.42e-06,0.0,0 STARLINK-5071,1 55402U 23014M   24157.52419522 -.00000142  00000-0 -40750-5 0  9995,2 55402  69.9998 243.6447 0003011 268.6714  91.4100 14.98333843 75864,6950.181,96.107,574.139,569.953,0.0
55402.0,STARLINK-5071,PAYLOAD,2024-06-06 12:36:51,14.98323558,0.0003599,69.9989,241.1197,274.312,85.7627,0.00022853,2.634e-05,0.0,0 STARLINK-5071,1 55402U 23014M   24158.52559602  .00002634  00000-0  22853-3 0  9998,2 55402  69.9989 241.1197 0003599 274.3120  85.7627 14.98323558 75070,6950.213,96.107,574.579,569.576,0.0
55402.0,STARLINK-5071,PAYLOAD,2024-06-07 07:50:28,14.98333252,0.0002924,69.999,239.1004,273.7417,86.3407,2.9028e-05,2.53e-06,0.0,0 STARLINK-5071,1 55402U 23014M   24159.32671528  .00000253  00000-0  29028-4 0  9996,2 55402  69.9990 239.1004 0002924 273.7417  86.3407 14.98333252 76132,6950.183,96.107,574.08,570.016,0.0
55402.0,STARLINK-5071,PAYLOAD,2024-06-07 22:15:40,14.98341364,0.0003278,69.9995,237.5833,275.5317,84.5468,5.4276e-05,5.55e-06,0.0,0 STARLINK-5071,1 55402U 23014M   24159.92754641  .00000555  00000-0  54276-4 0  9998,2 55402  69.9995 237.5833 0003278 275.5317  84.5468 14.98341364 76221,6950.158,96.106,574.301,569.744,0.0
55402.0,STARLINK-5071,PAYLOAD,2024-06-08 04:40:12,14.98331388,0.0002776,70.0006,236.9115,270.272,89.8121,0.00017013,1.938e-05,0.0,0 STARLINK-5071,1 55402U 23014M   24160.19459136  .00001938  00000-0  17013-3 0  9993,2 55402  70.0006 236.9115 0002776 270.2720  89.8121 14.98331388 75324,6950.189,96.107,573.983,570.124,0.0
55402.0,STARLINK-5071,PAYLOAD,2024-06-08 11:04:44,14.98334982,0.0002911,70.0,236.2399,265.9759,94.1067,0.0001194,1.332e-05,0.0,0 STARLINK-5071,1 55402U 23014M   24160.46162981  .00001332  00000-0  11940-3 0  9993,2 55402  70.0000 236.2399 0002911 265.9759  94.1067 14.98334982 76309,6950.177,96.107,574.066,570.019,0.0
55402.0,STARLINK-5071,PAYLOAD,2024-06-08 22:17:41,14.98339179,0.0003358,69.9998,235.0591,270.5652,89.5123,-8.6046e-05,-1.12e-05,0.0,0 STARLINK-5071,1 55402U 23014M   24160.92894766 -.00001120  00000-0 -86046-4 0  9994,2 55402  69.9998 235.0591 0003358 270.5652  89.5123 14.98339179 76374,6950.165,96.106,574.363,569.696,0.0
55402.0,STARLINK-5071,PAYLOAD,2024-06-09 11:06:46,14.98321767,0.0003084,69.9998,233.7151,266.9365,93.1441,-8.5267e-05,-1.11e-05,0.0,0 STARLINK-5071,1 55402U 23014M   24161.46304293 -.00001110  00000-0 -85267-4 0  9998,2 55402  69.9998 233.7151 0003084 266.9365  93.1441 14.98321767 75510,6950.218,96.108,574.227,569.94,0.0
55402.0,STARLINK-5071,PAYLOAD,2024-06-09 14:19:03,14.98321956,0.0002772,70.0012,233.3772,264.4536,95.6307,-0.00014077,-1.772e-05,0.0,0 STARLINK-5071,1 55402U 23014M   24161.59656512 -.00001772  00000-0 -14077-3 0  9990,2 55402  70.0012 233.3772 0002772 264.4536  95.6307 14.98321956 76475,6950.218,96.108,574.009,570.156,0.0
